{
    "links": {
        "self": "http://www.neowsapp.com/rest/v1/neo/3693271?api_key=iIulBulltgU6a56xZRHN4H3l9WmuAYTsLGpBGhQ2"
    },
    "id": "3693271",
    "neo_reference_id": "3693271",
    "name": "(2014 TT57)",
    "designation": "2014 TT57",
    "nasa_jpl_url": "http://ssd.jpl.nasa.gov/sbdb.cgi?sstr=3693271",
    "absolute_magnitude_h": 21.8,
    "estimated_diameter": {
        "kilometers": {
            "estimated_diameter_min": 0.1160259082,
            "estimated_diameter_max": 0.2594418179
        },
        "meters": {
            "estimated_diameter_min": 116.0259082094,
            "estimated_diameter_max": 259.4418179074
        },
        "miles": {
            "estimated_diameter_min": 0.0720951346,
            "estimated_diameter_max": 0.1612096218
        },
        "feet": {
            "estimated_diameter_min": 380.6624406898,
            "estimated_diameter_max": 851.1870938635
        }
    },
    "is_potentially_hazardous_asteroid": false,
    "close_approach_data": [
        {
            "close_approach_date": "2014-10-06",
            "close_approach_date_full": "2014-Oct-06 01:36",
            "epoch_date_close_approach": 1412559360000,
            "relative_velocity": {
                "kilometers_per_second": "16.4282775086",
                "kilometers_per_hour": "59141.7990310615",
                "miles_per_hour": "36748.4139590504"
            },
            "miss_distance": {
                "astronomical": "0.3038028333",
                "lunar": "118.1793021537",
                "kilometers": "45448256.761645071",
                "miles": "28240237.2344851398"
            },
            "orbiting_body": "Earth"
        },
        {
            "close_approach_date": "2025-10-10",
            "close_approach_date_full": "2025-Oct-10 18:21",
            "epoch_date_close_approach": 1760120460000,
            "relative_velocity": {
                "kilometers_per_second": "16.7418004063",
                "kilometers_per_hour": "60270.4814627657",
                "miles_per_hour": "37449.7333289057"
            },
            "miss_distance": {
                "astronomical": "0.4738530028",
                "lunar": "184.3288180892",
                "kilometers": "70887399.911984036",
                "miles": "44047387.8007942568"
            },
            "orbiting_body": "Earth"
        }
    ],
    "orbital_data": {
        "orbit_id": "8",
        "orbit_determination_date": "2017-12-13 06:20:18",
        "first_observation_date": "2014-10-14",
        "last_observation_date": "2014-10-30",
        "data_arc_in_days": 16,
        "observations_used": 45,
        "orbit_uncertainty": "7",
        "minimum_orbit_intersection": ".294355",
        "jupiter_tisserand_invariant": "4.030",
        "epoch_osculation": "2459000.5",
        "eccentricity": ".2340655395771329",
        "semi_major_axis": "1.682960553900283",
        "inclination": "31.98652102881594",
        "ascending_node_longitude": "15.41934686057966",
        "orbital_period": "797.4607781847385",
        "perihelion_distance": "1.289037483764583",
        "perihelion_argument": "348.3011595126307",
        "aphelion_distance": "2.076883624035984",
        "perihelion_time": "2459322.564833931005",
        "mean_anomaly": "214.6093508459641",
        "mean_motion": ".451432860208459",
        "equinox": "J2000",
        "orbit_class": {
            "orbit_class_type": "AMO",
            "orbit_class_description": "Near-Earth asteroid orbits similar to that of 1221 Amor",
            "orbit_class_range": "1.017 AU < q (perihelion) < 1.3 AU"
        }
    },
    "is_sentry_object": false
}